BEIDOU-3 M14            
1 43623U 18072B   26134.03606905 -.00000037  00000+0  00000+0 0  9990
2 43623  56.5980  63.7808 0006648 347.7176  12.2477  1.86231503 52014
BEIDOU-3 M16            
1 43647U 18078A   26132.58110638 -.00000042  00000+0  00000+0 0  9999
2 43647  54.1235 301.2337 0007880  39.7391 320.3068  1.86232272 51494
BEIDOU-3 M15            
1 43648U 18078B   26134.85818057 -.00000051  00000+0  00000+0 0  9992
2 43648  54.1176 301.1547 0004943  52.6427 307.3818  1.86232411 51552
BEIDOU-3 G1             
1 43683U 18085A   26135.20618178 -.00000100  00000+0  00000+0 0  9996
2 43683   2.7848  98.2523 0009499 337.0938  31.7776  1.00246679 27733
BEIDOU-3 M17            
1 43706U 18093A   26135.02163778  .00000099  00000+0  00000+0 0  9998
2 43706  54.1669 183.4218 0009682 290.7181  70.9290  1.86228288 50921
BEIDOU-3 M18            
1 43707U 18093B   26132.73439434  .00000084  00000+0  00000+0 0  9993
2 43707  54.1678 183.4917 0007396 321.8656  38.1678  1.86226542 50872
BEIDOU-3 IGSO-1         
1 44204U 19023A   26132.76772565 -.00000227  00000+0  00000+0 0  9998
2 44204  58.6468  38.0171 0023856 234.3090 349.8662  1.00250503  6851
BEIDOU-2 G8             
1 44231U 19027A   26135.27441275 -.00000233  00000+0  00000+0 0  9999
2 44231   1.5739  74.4308 0010782 281.2642 120.6393  1.00272297 25753
BEIDOU-3 IGSO-2         
1 44337U 19035A   26132.65390358 -.00000046  00000+0  00000+0 0  9991
2 44337  55.2385 159.1745 0039680 215.7907 210.7620  1.00277740 25317
BEIDOU-3 M24            
1 44542U 19061A   26134.95132601  .00000098  00000+0  00000+0 0  9994
2 44542  54.3947 183.8491 0008084   2.8875 357.2118  1.86229259 45175
BEIDOU-3 M23            
1 44543U 19061B   26135.08854230  .00000099  00000+0  00000+0 0  9990
2 44543  54.3933 183.8129 0005245 342.0059  21.8904  1.86227266 45182
BEIDOU-3 IGSO-3         
1 44709U 19073A   26120.85038409 -.00000212  00000+0  00000+0 0  9996
2 44709  54.8842 281.4069 0042404 188.8195 170.9972  1.00251230 23982
BEIDOU-3 M22            
1 44793U 19078A   26133.17974627 -.00000045  00000+0  00000+0 0  9998
2 44793  53.9691 301.0594 0007131  47.8476 312.1989  1.86227440 43994
BEIDOU-3 M21            
1 44794U 19078B   26130.09800295 -.00000037  00000+0  00000+0 0  9997
2 44794  53.9450 301.1295 0004992  44.9662 315.0658  1.86228028 43947
BEIDOU-3 M19            
1 44864U 19090A   26134.37148076 -.00000039  00000+0  00000+0 0  9998
2 44864  56.5302  63.9086 0019040 296.9236 245.2774  1.86231675 43605
BEIDOU-3 M20            
1 44865U 19090B   26135.22906975 -.00000042  00000+0  00000+0 0  9998
2 44865  56.5328  63.9149 0016737 310.0741 176.6927  1.86231500 43607
BEIDOU-3 G2             
1 45344U 20017A   26135.11901613 -.00000128  00000+0  00000+0 0  9999
2 45344   2.7973  46.8151 0002483   9.9475 298.9904  1.00272165 22926
BEIDOU-3 G3             
1 45807U 20040A   26135.26765273 -.00000341  00000+0  00000+0 0  9992
2 45807   2.3659  67.3554 0003208 333.6019  38.9466  1.00273975 21743
BEIDOU-3 G4             
1 56564U 23066A   26135.27345942 -.00000268  00000+0  00000+0 0  9991
2 56564   0.5301 323.6144 0003515 173.6448 334.1924  1.00275377 11063
BEIDOU-3 M28            
1 58654U 23207A   26132.32302171 -.00000030  00000+0  00000+0 0  9997
2 58654  55.7225  63.5128 0004245 330.2096  29.7521  1.86229701 16176
BEIDOU-3 M26            
1 58655U 23207B   26133.19442925 -.00000035  00000+0  00000+0 0  9991
2 58655  55.7254  63.4698 0004439 309.9196  50.0251  1.86229676 16177
BEIDOU-3 M25            
1 61186U 24168B   26134.63464834 -.00000050  00000+0  00000+0 0  9991
2 61186  54.5046 303.4082 0003091 312.9703  49.8050  1.86229921 11161
BEIDOU-3 M27            
1 61187U 24168C   26133.36745762 -.00000045  00000+0  00000+0 0  9997
2 61187  54.5014 303.4354 0002241  43.5716 324.6381  1.86230101  8615
